TRANSPORTER-16 OBJECT BN
1 68476U 26067BN  26103.91743317  .00002113  00000+0  21248-3 0  9995
2 68476  97.7512  63.1938 0003912 104.3776 255.7877 14.92272762  2147
