{
  "norad_id": 68476,
  "name": "TRANSPORTER-16 OBJECT BN",
  "history": [
    {
      "epoch": "2026-04-13T22:01:06.225888Z",
      "apogee_km": 593.5776268726977,
      "perigee_km": 588.1238364536521,
      "latitude_deg": -5.354875023327203e-05,
      "longitude_deg": -109.18346607651667,
      "height_km": 594.5640026926444,
      "semi_major_axis_km": 6968.987731663175,
      "eccentricity": 0.00039129,
      "inclination_deg": 97.7512,
      "raan_deg": 63.1938,
      "arg_perigee_deg": 104.3776,
      "mean_anomaly_deg": 255.7877,
      "mean_motion_rev_day": 14.92272762
    }
  ]
}